COSMOS 2413 (712)       
1 28509U 04053B   15081.01457841  .00000010  00000-0  10000-3 0  9996
2 28509  63.1465 206.2383 0005491 166.8049  66.9554  2.13101847 79646
COSMOS 2419 (714)       
1 28915U 05050A   15080.70584677  .00000032  00000-0  00000+0 0  9997
2 28915  65.1355  93.4798 0017232 342.6873   7.8970  2.13107609 71884
COSMOS 2425 (716)       
1 29670U 06062A   15080.55302823 -.00000037  00000-0  10000-3 0  9995
2 29670  65.8006 332.3811 0023639 347.6749 312.4787  2.13105052 64084
COSMOS 2426 (717)       
1 29671U 06062B   15081.09466111 -.00000041  00000-0  10000-3 0  9992
2 29671  65.8176 332.4342 0014754 162.4338  57.3938  2.13103104 64100
COSMOS 2424 (715)       
1 29672U 06062C   15081.18378898 -.00000042  00000-0  10000-3 0  9998
2 29672  65.8021 332.3680 0014323 160.9060 304.8564  2.13102121 64104
COSMOS 2433 (720)       
1 32275U 07052A   15080.43918814  .00000035  00000-0  10000-3 0  9997
2 32275  65.1505  93.2506 0005166 270.4016 133.4355  2.13105131 57605
COSMOS 2432 (719)       
1 32276U 07052B   15080.07650836  .00000040  00000-0  10000-3 0  9991
2 32276  65.1625  93.3214 0013591 328.6408 111.8115  2.13104429 57599
COSMOS 2434 (721)       
1 32393U 07065A   15080.63424560 -.00000038  00000-0  00000+0 0  9993
2 32393  65.4219 331.9164 0003943  78.4923  11.0591  2.13102826 56315
COSMOS 2436 (723)       
1 32395U 07065C   15080.63655764 -.00000038  00000-0  10000-3 0  9992
2 32395  65.4350 331.9515 0019124 355.1415 188.1810  2.13102936 56246
COSMOS 2443 (725)       
1 33379U 08046B   15080.70620990  .00000031  00000-0  10000-3 0  9998
2 33379  65.0778  92.7026 0018444 193.4192 325.9420  2.13101596 50475
COSMOS 2456 (730)       
1 36111U 09070A   15080.73154329  .00000010  00000-0  00000+0 0  9996
2 36111  64.2043 211.6145 0003693 337.4177 353.9228  2.13102948 40978
COSMOS 2457 (733)       
1 36112U 09070B   15081.03103958  .00000012  00000-0  00000+0 0  9995
2 36112  64.1862 211.5412 0007278 150.8985 182.6572  2.13101514 40988
COSMOS 2458 (734)       
1 36113U 09070C   15080.46033353  .00000008  00000-0  10000-3 0  9993
2 36113  64.1917 211.5634 0002531  56.3103 246.2669  2.13102060 40975
COSMOS 2459 (731)       
1 36400U 10007A   15080.14567522  .00000038  00000-0  10000-3 0  9992
2 36400  65.0560  92.4695 0029832 348.5105  59.5301  2.13102497 39321
COSMOS 2461 (735)       
1 36401U 10007B   15081.18232927  .00000026  00000-0  10000-3 0  9993
2 36401  65.0492  92.4197 0003477  57.5789 336.2553  2.13102491 39345
COSMOS 2460 (732)       
1 36402U 10007C   15080.18185197  .00000037  00000-0  10000-3 0  9991
2 36402  65.0389  92.4363 0002621 272.7237 116.1633  2.13102127 39323
COSMOS 2466 (738)       
1 37137U 10041A   15080.04487059 -.00000036  00000-0  10000-3 0  9992
2 37137  65.0063 332.2739 0018670 149.7151  71.5059  2.13102430 35395
COSMOS 2465 (737)       
1 37138U 10041B   15080.25102999 -.00000037  00000-0  00000+0 0  9999
2 37138  65.0231 332.3311 0032517 166.6731  34.8232  2.13102843 35391
COSMOS 2464 (736)       
1 37139U 10041C   15080.67757681 -.00000040  00000-0  00000+0 0  9994
2 37139  65.0247 332.3078 0023653  12.9220 290.3286  2.13102923 35405
COSMOS 2471 (701K)      
1 37372U 11009A   15080.07606486  .00000038  00000-0  00000+0 0  9994
2 37372  65.0364  92.3912 0009318 242.7454 196.0519  2.13103069 31597
COSMOS 2474 (742)       
1 37829U 11055A   15080.43127199  .00000008  00000-0  00000+0 0  9998
2 37829  64.5283 211.8496 0006123 254.0478  70.3949  2.13101951 26960
COSMOS 2476 (744)       
1 37867U 11064A   15080.41857105  .00000008  00000-0  00000+0 0  9995
2 37867  64.5083 211.9434 0014802 249.4787 110.8412  2.13102080 26326
COSMOS 2477 (745)       
1 37868U 11064B   15080.69267528  .00000010  00000-0  00000+0 0  9993
2 37868  64.5162 211.9691 0012784 250.8980 139.2483  2.13101884 26287
COSMOS 2475 (743)       
1 37869U 11064C   15080.69080204  .00000010  00000-0  00000+0 0  9998
2 37869  64.5240 211.9531 0019152 281.2098  63.3389  2.13102013 26289
COSMOS 2478 (746)       
1 37938U 11071A   15080.13890023  .00000038  00000-0  00000+0 0  9990
2 37938  65.0677  92.5927 0015598 245.1999  21.4419  2.13102506 25888
COSMOS 2485 (747)       
1 39155U 13019A   15080.41444637  .00000008  00000-0  00000+0 0  9991
2 39155  64.6767 211.7943 0014977 243.2021 159.2286  2.13102091 14793
COSMOS 2492 (754)       
1 39620U 14012A   15080.62136856  .00000032  00000-0  10000-3 0  9998
2 39620  64.9275  92.4740 0017643 327.0377 265.7574  2.13103384  7762
COSMOS 2500 (755)       
1 40001U 14032A   15080.12605606  .00000038  00000-0  00000+0 0  9995
2 40001  64.8673  92.5496 0007467 224.6088 212.6862  2.13103111  5959
COSMOS 2501 (702K)      
1 40315U 14075A   15080.41084641 -.00000040  00000-0  00000+0 0  9996
2 40315  64.7900 333.9115 0016195 242.9911 216.6674  2.13101389  2367
